NORAD_CAT_ID,OBJECT_NAME,OBJECT_TYPE,EPOCH,MEAN_MOTION,ECCENTRICITY,INCLINATION,RA_OF_ASC_NODE,ARG_OF_PERICENTER,MEAN_ANOMALY,BSTAR,MEAN_MOTION_DOT,MEAN_MOTION_DDOT,TLE_LINE0,TLE_LINE1,TLE_LINE2,SEMIMAJOR_AXIS,PERIOD,APOGEE,PERIGEE,DECAYED
55931.0,STARLINK-5897,PAYLOAD,2023-06-16 18:38:51,14.98340555,0.0003198,69.9996,297.8449,269.8793,90.2,0.00012581,1.409e-05,0.0,0 STARLINK-5897,1 55931U 23037T   23167.77698558  .00001409  00000-0  12581-3 0  9996,2 55931  69.9996 297.8449 0003198 269.8793  90.2000 14.98340555 14168,6950.16,96.106,574.248,569.803,0.0
55931.0,STARLINK-5897,PAYLOAD,2023-06-17 09:04:05,14.98323424,0.0003126,69.9996,296.33,269.6642,90.4159,-1.4247e-05,-2.63e-06,0.0,0 STARLINK-5897,1 55931U 23037T   23168.37784032 -.00000263  00000-0 -14247-4 0  9997,2 55931  69.9996 296.3300 0003126 269.6642  90.4159 14.98323424 14253,6950.213,96.107,574.251,569.906,0.0
55931.0,STARLINK-5897,PAYLOAD,2023-06-17 15:28:38,14.98316119,0.0002963,70.0006,295.6577,267.8828,92.1992,-8.2124e-05,-1.072e-05,0.0,0 STARLINK-5897,1 55931U 23037T   23168.64488810 -.00001072  00000-0 -82124-4 0  9990,2 55931  70.0006 295.6577 0002963 267.8828  92.1992 14.98316119 14639,6950.236,96.108,574.16,570.041,0.0
55931.0,STARLINK-5897,PAYLOAD,2023-06-18 07:29:58,14.98327591,0.0003458,69.9989,293.9728,273.7426,86.3337,-8.7915e-05,-1.142e-05,0.0,0 STARLINK-5897,1 55931U 23037T   23169.31248384 -.00001142  00000-0 -87915-4 0  9996,2 55931  69.9989 293.9728 0003458 273.7426  86.3337 14.98327591 14730,6950.2,96.107,574.469,569.662,0.0
55931.0,STARLINK-5897,PAYLOAD,2023-06-18 12:18:22,14.98330582,0.0003424,69.9991,293.4683,273.1058,86.9709,-5.0142e-05,-6.91e-06,0.0,0 STARLINK-5897,1 55931U 23037T   23169.51276093 -.00000691  00000-0 -50142-4 0  9996,2 55931  69.9991 293.4683 0003424 273.1058  86.9709 14.98330582 14425,6950.191,96.107,574.436,569.676,0.0
55931.0,STARLINK-5897,PAYLOAD,2023-06-19 01:07:26,14.98339215,0.0003391,69.9993,292.1221,272.1679,87.9092,-5.3274e-05,-7.29e-06,0.0,0 STARLINK-5897,1 55931U 23037T   23170.04683346 -.00000729  00000-0 -53274-4 0  9990,2 55931  69.9993 292.1221 0003391 272.1679  87.9092 14.98339215 14846,6950.164,96.106,574.386,569.673,0.0
55931.0,STARLINK-5897,PAYLOAD,2023-06-19 13:56:30,14.98328677,0.0003074,69.9996,290.7758,267.2715,92.8092,0.00018805,2.151e-05,0.0,0 STARLINK-5897,1 55931U 23037T   23170.58091432  .00002151  00000-0  18805-3 0  9997,2 55931  69.9996 290.7758 0003074 267.2715  92.8092 14.98328677 14588,6950.197,96.107,574.198,569.925,0.0
55931.0,STARLINK-5897,PAYLOAD,2023-06-20 01:09:27,14.98334697,0.0003409,69.9995,289.5976,272.9724,87.1045,8.8072e-05,9.58e-06,0.0,0 STARLINK-5897,1 55931U 23037T   23171.04823247  .00000958  00000-0  88072-4 0  9993,2 55931  69.9995 289.5976 0003409 272.9724  87.1045 14.98334697 14652,6950.178,96.107,574.413,569.674,0.0
55931.0,STARLINK-5897,PAYLOAD,2023-06-20 17:10:48,14.98328889,0.0003345,69.9997,287.9141,272.4021,87.6755,-3.9641e-05,-5.66e-06,0.0,0 STARLINK-5897,1 55931U 23037T   23171.71583902 -.00000566  00000-0 -39641-4 0  9993,2 55931  69.9997 287.9141 0003345 272.4021  87.6755 14.98328889 15092,6950.196,96.107,574.386,569.736,0.0
55931.0,STARLINK-5897,PAYLOAD,2023-06-21 14:00:33,14.98330712,0.000359,69.9992,285.7257,273.1619,86.913,-8.3093e-05,-1.084e-05,0.0,0 STARLINK-5897,1 55931U 23037T   23172.58371787 -.00001084  00000-0 -83093-4 0  9991,2 55931  69.9992 285.7257 0003590 273.1619  86.9130 14.98330712 14887,6950.191,96.107,574.551,569.561,0.0
55931.0,STARLINK-5897,PAYLOAD,2023-06-21 17:12:49,14.98331587,0.0003415,69.9995,285.3889,270.7055,89.3712,-7.2937e-05,-9.63e-06,0.0,0 STARLINK-5897,1 55931U 23037T   23172.71723698 -.00000963  00000-0 -72937-4 0  9998,2 55931  69.9995 285.3889 0003415 270.7055  89.3712 14.98331587 15245,6950.188,96.107,574.426,569.679,0.0
55931.0,STARLINK-5897,PAYLOAD,2023-06-22 17:14:49,14.98337004,0.0003564,69.9997,282.8644,269.6751,90.4,-1.4019e-05,-2.6e-06,0.0,0 STARLINK-5897,1 55931U 23037T   23173.71863205 -.00000260  00000-0 -14019-4 0  9995,2 55931  69.9997 282.8644 0003564 269.6751  90.4000 14.98337004 15392,6950.171,96.107,574.513,569.559,0.0
55931.0,STARLINK-5897,PAYLOAD,2023-06-23 09:16:10,14.98326553,0.0003411,69.9997,281.181,269.5471,90.5297,5.498e-05,5.63e-06,0.0,0 STARLINK-5897,1 55931U 23037T   23174.38623630  .00000563  00000-0  54980-4 0  9990,2 55931  69.9997 281.1810 0003411 269.5471  90.5297 14.98326553 15495,6950.204,96.107,574.439,569.698,0.0
55931.0,STARLINK-5897,PAYLOAD,2023-06-24 15:42:43,14.98332777,0.0003159,70.0003,277.9833,265.7914,94.2884,2.7967e-05,2.41e-06,0.0,0 STARLINK-5897,1 55931U 23037T   23175.65467280  .00000241  00000-0  27967-4 0  9996,2 55931  70.0003 277.9833 0003159 265.7914  94.2884 14.98332777 15682,6950.184,96.107,574.245,569.854,0.0
55931.0,STARLINK-5897,PAYLOAD,2023-06-25 15:44:44,14.98334026,0.00035,69.9997,275.4581,270.5854,89.4904,4.8044e-05,4.8e-06,0.0,0 STARLINK-5897,1 55931U 23037T   23176.65606929  .00000480  00000-0  48044-4 0  9996,2 55931  69.9997 275.4581 0003500 270.5854  89.4904 14.98334026 15836,6950.18,96.107,574.478,569.613,0.0
55931.0,STARLINK-5897,PAYLOAD,2023-06-25 23:45:25,14.98329173,0.0003242,70.0003,274.6156,273.2895,86.7893,-4.4564e-05,-6.25e-06,0.0,0 STARLINK-5897,1 55931U 23037T   23176.98987489 -.00000625  00000-0 -44564-4 0  9991,2 55931  70.0003 274.6156 0003242 273.2895  86.7893 14.98329173 15883,6950.195,96.107,574.314,569.807,0.0
55931.0,STARLINK-5897,PAYLOAD,2023-06-27 11:00:22,14.98326537,0.0003637,69.9994,270.9139,270.2168,89.8574,3.9962e-05,3.84e-06,0.0,0 STARLINK-5897,1 55931U 23037T   23178.45859542  .00000384  00000-0  39962-4 0  9999,2 55931  69.9994 270.9139 0003637 270.2168  89.8574 14.98326537 16104,6950.204,96.107,574.596,569.541,0.0
55931.0,STARLINK-5897,PAYLOAD,2023-06-28 15:50:47,14.98331565,0.0003557,69.9993,267.8834,271.5627,88.5124,8.8321e-05,9.61e-06,0.0,0 STARLINK-5897,1 55931U 23037T   23179.66027063  .00000961  00000-0  88321-4 0  9992,2 55931  69.9993 267.8834 0003557 271.5627  88.5124 14.98331565 16288,6950.188,96.107,574.525,569.581,0.0
55931.0,STARLINK-5897,PAYLOAD,2023-06-29 15:52:48,14.98333842,0.0003487,69.9996,265.3583,271.0121,89.0638,3.872e-06,-4.7e-07,0.0,0 STARLINK-5897,1 55931U 23037T   23180.66167051 -.00000047  00000-0  38720-5 0  9991,2 55931  69.9996 265.3583 0003487 271.0121  89.0638 14.98333842 16434,6950.181,96.107,574.47,569.622,0.0
55931.0,STARLINK-5897,PAYLOAD,2023-07-01 09:32:19,14.98325348,0.0003493,69.9994,260.982,268.816,91.2599,-3.4825e-05,-5.09e-06,0.0,0 STARLINK-5897,1 55931U 23037T   23182.39744361 -.00000509  00000-0 -34825-4 0  9993,2 55931  69.9994 260.9820 0003493 268.8160  91.2599 14.98325348 16692,6950.207,96.107,574.5,569.645,0.0
55931.0,STARLINK-5897,PAYLOAD,2023-07-02 11:10:27,14.98329492,0.0003665,69.9988,258.2887,269.7616,90.3123,0.0001755,2.002e-05,0.0,0 STARLINK-5897,1 55931U 23037T   23183.46559729  .00002002  00000-0  17550-3 0  9997,2 55931  69.9988 258.2887 0003665 269.7616  90.3123 14.98329492 16850,6950.194,96.107,574.607,569.512,0.0
55931.0,STARLINK-5897,PAYLOAD,2023-07-03 11:12:28,14.98337211,0.0003648,69.9989,255.7637,269.4413,90.6328,8.8288e-05,9.61e-06,0.0,0 STARLINK-5897,1 55931U 23037T   23184.46699215  .00000961  00000-0  88288-4 0  9992,2 55931  69.9989 255.7637 0003648 269.4413  90.6328 14.98337211 17005,6950.171,96.107,574.571,569.5,0.0
55931.0,STARLINK-5897,PAYLOAD,2023-07-04 11:14:29,14.9833563,0.0003654,69.9988,253.2383,269.4516,90.6225,-6.6517e-05,-8.87e-06,0.0,0 STARLINK-5897,1 55931U 23037T   23185.46839174 -.00000887  00000-0 -66517-4 0  9993,2 55931  69.9988 253.2383 0003654 269.4516  90.6225 14.98335630 17151,6950.175,96.107,574.58,569.501,0.0
55931.0,STARLINK-5897,PAYLOAD,2023-07-05 11:16:29,14.98335219,0.0003561,69.9992,250.7136,271.0059,89.0692,-7.0848e-05,-9.38e-06,0.0,0 STARLINK-5897,1 55931U 23037T   23186.46978819 -.00000938  00000-0 -70848-4 0  9993,2 55931  69.9992 250.7136 0003561 271.0059  89.0692 14.98335219 17302,6950.177,96.107,574.517,569.567,0.0
55931.0,STARLINK-5897,PAYLOAD,2023-07-06 14:30:46,14.98331541,0.0003635,69.9994,247.8525,271.035,89.0392,1.4008e-05,7.4e-07,0.0,0 STARLINK-5897,1 55931U 23037T   23187.60470618  .00000074  00000-0  14008-4 0  9999,2 55931  69.9994 247.8525 0003635 271.0350  89.0392 14.98331541 17478,6950.188,96.107,574.58,569.527,0.0
55931.0,STARLINK-5897,PAYLOAD,2023-07-07 20:57:19,14.98330892,0.0003656,69.9995,244.6545,270.1175,89.9565,1.8586e-05,1.29e-06,0.0,0 STARLINK-5897,1 55931U 23037T   23188.87314496  .00000129  00000-0  18586-4 0  9996,2 55931  69.9995 244.6545 0003656 270.1175  89.9565 14.98330892 17664,6950.19,96.107,574.596,569.514,0.0
55931.0,STARLINK-5897,PAYLOAD,2023-07-08 20:59:20,14.98329062,0.000365,69.9995,242.13,266.2019,93.8723,-2.3451e-05,-3.73e-06,0.0,0 STARLINK-5897,1 55931U 23037T   23189.87454621 -.00000373  00000-0 -23451-4 0  9992,2 55931  69.9995 242.1300 0003650 266.2019  93.8723 14.98329062 17817,6950.196,96.107,574.598,569.524,0.0
55931.0,STARLINK-5897,PAYLOAD,2023-07-10 03:25:54,14.98328262,0.000376,69.9993,238.9316,268.7906,91.2823,1.3923e-05,7.3e-07,0.0,0 STARLINK-5897,1 55931U 23037T   23191.14298762  .00000073  00000-0  13923-4 0  9995,2 55931  69.9993 238.9316 0003760 268.7906  91.2823 14.98328262 18005,6950.198,96.107,574.677,569.45,0.0
55931.0,STARLINK-5897,PAYLOAD,2023-07-10 21:03:22,14.98347212,0.0003855,69.9993,237.0798,269.4461,90.6256,-0.00024851,-3.059e-05,0.0,0 STARLINK-5897,1 55931U 23037T   23191.87734168 -.00003059  00000-0 -24851-3 0  9990,2 55931  69.9993 237.0798 0003855 269.4461  90.6256 14.98347212 18119,6950.14,96.106,574.684,569.325,0.0
55931.0,STARLINK-5897,PAYLOAD,2023-07-11 03:27:54,14.98329919,0.0003805,69.9992,236.4066,268.7946,91.2777,9.4765e-05,1.038e-05,0.0,0 STARLINK-5897,1 55931U 23037T   23192.14438427  .00001038  00000-0  94765-4 0  9995,2 55931  69.9992 236.4066 0003805 268.7946  91.2777 14.98329919 18157,6950.193,96.107,574.703,569.414,0.0
